2025-08-03 17:29:51,967 - comtypes.client._code_cache - INFO - Imported existing <module 'comtypes.gen' from 'D:\\software\\miniconda3\\Lib\\site-packages\\comtypes\\gen\\__init__.py'>
2025-08-03 17:29:51,968 - comtypes.client._code_cache - INFO - Using writeable comtypes cache directory: 'D:\software\miniconda3\Lib\site-packages\comtypes\gen'
2025-08-03 17:29:52,030 - src.meta_task_main - INFO - ğŸ¯ åˆå§‹åŒ–å…ƒä»»åŠ¡æ•°æ®é‡‡é›†ç³»ç»Ÿ...
2025-08-03 17:29:52,042 - src.utils.config_manager - INFO - âœ… é…ç½®æ–‡ä»¶åŠ è½½æˆåŠŸ: config/config.yaml
2025-08-03 17:29:52,045 - src.utils.time_manager - INFO - ğŸ• æ—¶é—´ç®¡ç†å™¨åˆå§‹åŒ–å®Œæˆ:
2025-08-03 17:29:52,045 - src.utils.time_manager - INFO -    ä»¿çœŸæ—¶é—´èŒƒå›´: 2025-07-25 00:00:00 - 2025-07-26 00:00:00
2025-08-03 17:29:52,054 - src.utils.time_manager - INFO -    å†å…ƒæ—¶é—´: 2025-07-25 00:00:00
2025-08-03 17:29:52,055 - src.utils.time_manager - INFO -    æ•°æ®é‡‡é›†é—´éš”: [60, 300]ç§’
2025-08-03 17:29:52,055 - src.utils.time_manager - INFO -    ä¿å­˜é¢‘ç‡: æ¯2æ¬¡é‡‡é›†ä¿å­˜ä¸€æ¬¡
2025-08-03 17:29:52,055 - src.utils.time_manager - INFO -    æ€»é‡‡é›†æ¬¡æ•°ç›®æ ‡: 50æ¬¡
2025-08-03 17:29:52,055 - src.utils.time_manager - INFO -    å¯¼å¼¹å‘å°„é—´éš”: [300, 1800]ç§’
2025-08-03 17:29:52,056 - src.utils.time_manager - INFO - ğŸ• æ—¶é—´ç®¡ç†å™¨åˆå§‹åŒ–å®Œæˆ:
2025-08-03 17:29:52,056 - src.utils.time_manager - INFO -    ä»¿çœŸæ—¶é—´èŒƒå›´: 2025-07-25 00:00:00 - 2025-07-26 00:00:00
2025-08-03 17:29:52,056 - src.utils.time_manager - INFO -    å†å…ƒæ—¶é—´: 2025-07-25 00:00:00
2025-08-03 17:29:52,056 - src.utils.time_manager - INFO -    æ•°æ®é‡‡é›†é—´éš”: [60, 300]ç§’
2025-08-03 17:29:52,057 - src.utils.time_manager - INFO -    ä¿å­˜é¢‘ç‡: æ¯2æ¬¡é‡‡é›†ä¿å­˜ä¸€æ¬¡
2025-08-03 17:29:52,057 - src.utils.time_manager - INFO -    æ€»é‡‡é›†æ¬¡æ•°ç›®æ ‡: 50æ¬¡
2025-08-03 17:29:52,057 - src.utils.time_manager - INFO -    å¯¼å¼¹å‘å°„é—´éš”: [300, 1800]ç§’
2025-08-03 17:29:52,057 - src.constellation.constellation_manager - INFO - ğŸŒŸ æ˜Ÿåº§ç®¡ç†å™¨åˆå§‹åŒ–å®Œæˆ
2025-08-03 17:29:52,057 - src.stk_interface.missile_manager - INFO - å¯¼å¼¹ç®¡ç†å™¨åˆå§‹åŒ–å®Œæˆï¼Œä¸­æ®µé«˜åº¦é˜ˆå€¼: 100km
2025-08-03 17:29:52,058 - src.stk_interface.visibility_calculator - INFO - ğŸ” å¯è§æ€§è®¡ç®—å™¨åˆå§‹åŒ–
2025-08-03 17:29:52,058 - src.data_collection.data_collector - INFO - ğŸ“Š æ•°æ®é‡‡é›†å™¨åˆå§‹åŒ–å®Œæˆ
2025-08-03 17:29:52,058 - src.meta_task.meta_task_manager - INFO - ğŸ¯ å…ƒä»»åŠ¡ç®¡ç†å™¨åˆå§‹åŒ–å®Œæˆ
2025-08-03 17:29:52,058 - src.meta_task.meta_task_manager - INFO -    å…ƒå­ä»»åŠ¡æ—¶é—´é—´éš”: 300ç§’
2025-08-03 17:29:52,059 - src.meta_task.visible_meta_task_calculator - INFO - ğŸ‘ï¸ å¯è§å…ƒå­ä»»åŠ¡è®¡ç®—å™¨åˆå§‹åŒ–å®Œæˆ
2025-08-03 17:29:52,059 - src.meta_task.visible_meta_task_calculator - INFO -    è¦†ç›–è¦æ±‚: complete
2025-08-03 17:29:52,059 - src.meta_task.visible_meta_task_calculator - INFO -    æœ€å°é‡å æ¯”ä¾‹: 1.0
2025-08-03 17:29:52,059 - src.meta_task.meta_task_data_collector - INFO - ğŸ¯ å…ƒä»»åŠ¡æ•°æ®é‡‡é›†å™¨åˆå§‹åŒ–å®Œæˆ
2025-08-03 17:29:52,060 - src.meta_task.rolling_data_collector - INFO - ğŸ”„ æ»šåŠ¨æ•°æ®é‡‡é›†ç®¡ç†å™¨åˆå§‹åŒ–å®Œæˆ
2025-08-03 17:29:52,061 - src.meta_task.rolling_data_collector - INFO -    æ€»é‡‡é›†æ¬¡æ•°: 10
2025-08-03 17:29:52,061 - src.meta_task.rolling_data_collector - INFO -    é‡‡é›†é—´éš”: 300-900ç§’
2025-08-03 17:29:52,061 - src.meta_task.rolling_data_collector - INFO -    æœ€å¤§å¹¶å‘å¯¼å¼¹: 5
2025-08-03 17:29:52,061 - src.meta_task_main - INFO - âœ… å…ƒä»»åŠ¡æ•°æ®é‡‡é›†ç³»ç»Ÿåˆå§‹åŒ–å®Œæˆ
2025-08-03 17:29:52,061 - src.meta_task_main - INFO - ğŸ”§ è®¾ç½®STKç¯å¢ƒ...
2025-08-03 17:29:55,412 - src.stk_interface.stk_manager - INFO - åˆ›å»ºæ–°çš„STKå®ä¾‹
2025-08-03 17:29:55,449 - src.stk_interface.stk_manager - INFO - ğŸ†• æ²¡æœ‰æ£€æµ‹åˆ°ç°æœ‰åœºæ™¯
2025-08-03 17:29:55,450 - src.stk_interface.stk_manager - INFO - ğŸ†• æœªæ£€æµ‹åˆ°ç°æœ‰é¡¹ç›®ï¼Œå°†åˆ›å»ºæ–°çš„åœºæ™¯å’Œå¯¹è±¡
2025-08-03 17:29:55,450 - src.stk_interface.stk_manager - INFO - å…³é—­ç°æœ‰åœºæ™¯
2025-08-03 17:30:02,641 - src.stk_interface.stk_manager - INFO - åˆ›å»ºæ–°åœºæ™¯: MCP_Created_Scenario
2025-08-03 17:30:02,642 - src.stk_interface.stk_manager - INFO - ğŸ• ç»Ÿä¸€æ—¶é—´ç®¡ç†å™¨é…ç½®:
2025-08-03 17:30:02,642 - src.stk_interface.stk_manager - INFO -    å¼€å§‹æ—¶é—´: 25 Jul 2025 00:00:00.000
2025-08-03 17:30:02,643 - src.stk_interface.stk_manager - INFO -    ç»“æŸæ—¶é—´: 26 Jul 2025 00:00:00.000
2025-08-03 17:30:02,643 - src.stk_interface.stk_manager - INFO -    å†å…ƒæ—¶é—´: 25 Jul 2025 00:00:00.000
2025-08-03 17:30:02,889 - src.stk_interface.stk_manager - INFO - âœ… STKåœºæ™¯ä»¿çœŸæ—¶é—´å·²è®¾ç½®: 25 Jul 2025 00:00:00.000 - 26 Jul 2025 00:00:00.000
2025-08-03 17:30:02,890 - src.stk_interface.stk_manager - INFO - STKè¿æ¥æˆåŠŸ
2025-08-03 17:30:02,890 - src.meta_task_main - INFO - âœ… STKç¯å¢ƒè®¾ç½®å®Œæˆ
2025-08-03 17:30:02,890 - src.meta_task_main - INFO - ğŸŒŸ è®¾ç½®Walkeræ˜Ÿåº§...
2025-08-03 17:30:02,890 - src.constellation.constellation_manager - INFO - ğŸŒŸ å¼€å§‹åˆ›å»ºWalkeræ˜Ÿåº§...
2025-08-03 17:30:02,890 - src.constellation.constellation_manager - INFO - ğŸ“Š æ˜Ÿåº§é…ç½®: Walker, 3ä¸ªè½¨é“é¢, æ¯é¢3é¢—å«æ˜Ÿ
2025-08-03 17:30:03,079 - src.stk_interface.stk_manager - INFO - ä½¿ç”¨COMæ¥å£åˆ›å»ºå«æ˜Ÿ: Satellite01
2025-08-03 17:30:05,079 - src.stk_interface.stk_manager - INFO - åœºæ™¯Childrenå¯¹è±¡åˆ—è¡¨:
2025-08-03 17:30:05,151 - src.stk_interface.stk_manager - INFO - Child 0: ClassName=Satellite, InstanceName=Satellite01, Name=None
2025-08-03 17:30:05,220 - src.stk_interface.stk_manager - INFO - è½¨é“ä¼ æ’­å™¨ç±»å‹è®¾ç½®æˆåŠŸ
2025-08-03 17:30:05,220 - src.stk_interface.stk_manager - INFO - å¼€å§‹è®¾ç½®å«æ˜Ÿè½¨é“å‚æ•°...
2025-08-03 17:30:05,220 - src.stk_interface.stk_manager - INFO - æ¥æ”¶åˆ°çš„è½¨é“å‚æ•°: {'semi_axis': 7571.0, 'eccentricity': 0.0, 'inclination': 55.0, 'raan': 24.0, 'arg_of_perigee': 12, 'mean_anomaly': 180.0}
2025-08-03 17:30:05,220 - src.stk_interface.stk_manager - INFO - å‚æ•° semi_axis = 7571.0 km åœ¨åˆç†èŒƒå›´å†…
2025-08-03 17:30:05,220 - src.stk_interface.stk_manager - INFO - å‚æ•° eccentricity = 0.0 æ— é‡çº² åœ¨åˆç†èŒƒå›´å†…
2025-08-03 17:30:05,220 - src.stk_interface.stk_manager - INFO - å‚æ•° inclination = 55.0 åº¦ åœ¨åˆç†èŒƒå›´å†…
2025-08-03 17:30:05,220 - src.stk_interface.stk_manager - INFO - å‚æ•° raan = 24.0 åº¦ åœ¨åˆç†èŒƒå›´å†…
2025-08-03 17:30:05,221 - src.stk_interface.stk_manager - INFO - å‚æ•° arg_of_perigee = 12 åº¦ åœ¨åˆç†èŒƒå›´å†…
2025-08-03 17:30:05,221 - src.stk_interface.stk_manager - INFO - å‚æ•° mean_anomaly = 180.0 åº¦ åœ¨åˆç†èŒƒå›´å†…
2025-08-03 17:30:05,221 - src.stk_interface.stk_manager - INFO - ğŸ”„ ä½¿ç”¨ä¼˜åŒ–çš„COMæ¥å£è®¾ç½®è½¨é“å‚æ•°...
2025-08-03 17:30:05,221 - src.stk_interface.stk_manager - INFO - å°è¯•ä½¿ç”¨Keplerianè½¨é“è¡¨ç¤ºæ³•...
2025-08-03 17:30:05,558 - src.stk_interface.stk_manager - INFO - âœ… Keplerianè½¨é“å‚æ•°è®¾ç½®æˆåŠŸ
2025-08-03 17:30:05,559 - src.stk_interface.stk_manager - INFO - âœ… ä¼ æ’­å™¨ç±»å‹è®¾ç½®ä¸ºJ2æ‘„åŠ¨
2025-08-03 17:30:05,654 - src.stk_interface.stk_manager - INFO - âœ… è½¨é“ä¼ æ’­å®Œæˆ
2025-08-03 17:30:05,655 - src.stk_interface.stk_manager - INFO - âœ… è½¨é“å‚æ•°è®¾ç½®æˆåŠŸï¼Œå«æ˜Ÿè½¨é“å·²æ›´æ–°
2025-08-03 17:30:05,757 - src.stk_interface.stk_manager - INFO - å«æ˜Ÿ Satellite01 åˆ›å»ºæˆåŠŸ
2025-08-03 17:30:06,042 - src.stk_interface.stk_manager - INFO - ä½¿ç”¨COMæ¥å£åˆ›å»ºè½½è·: Satellite01_Payload
2025-08-03 17:30:07,043 - src.stk_interface.stk_manager - INFO - =============== å¼€å§‹è¯¦ç»†é…ç½®è½½è·å‚æ•° ===============
2025-08-03 17:30:07,044 - src.stk_interface.stk_manager - INFO - æ¥æ”¶åˆ°çš„è½½è·å‚æ•°: {'type': 'Optical_Sensor', 'mounting': 'Nadir', 'sensor_pattern': 'Conic', 'inner_cone_half_angle': 66.1, 'outer_cone_half_angle': 85.0, 'clockwise_angle_min': 0.0, 'clockwise_angle_max': 360.0, 'pointing': {'azimuth': 0.0, 'elevation': 90.0}, 'constraints_range': {'min_range': 0, 'max_range': 5000, 'active': True}}
2025-08-03 17:30:07,044 - src.stk_interface.stk_manager - INFO - ğŸ”„ å¼€å§‹è®¾ç½®ä¼ æ„Ÿå™¨åœ†é”¥è§†åœºå‚æ•°...
2025-08-03 17:30:07,065 - src.stk_interface.stk_manager - INFO - âœ“ ä½¿ç”¨SetPatternTypeè®¾ç½®ä¼ æ„Ÿå™¨æ¨¡å¼ä¸ºé”¥å½¢æˆåŠŸ
2025-08-03 17:30:07,331 - src.stk_interface.stk_manager - INFO - âœ“ ä½¿ç”¨éªŒè¯æˆåŠŸçš„æ–¹æ³•è®¾ç½®é”¥å½¢å‚æ•°æˆåŠŸ: å†…é”¥è§’66.1Â°, å¤–é”¥è§’85.0Â°
2025-08-03 17:30:07,374 - src.stk_interface.stk_manager - INFO - âœ“ ä½¿ç”¨STKå®˜æ–¹æ–¹æ³•è®¾ç½®æŒ‡å‘å‚æ•°æˆåŠŸ: æ–¹ä½è§’0.0Â°, ä¿¯ä»°è§’90.0Â°
2025-08-03 17:30:07,374 - src.stk_interface.stk_manager - INFO - =============== å¼€å§‹é…ç½®ä¼ æ„Ÿå™¨çº¦æŸ ===============
2025-08-03 17:30:07,891 - src.stk_interface.stk_manager - INFO - âœ“ è·å–ä¼ æ„Ÿå™¨çº¦æŸå¯¹è±¡æˆåŠŸ
2025-08-03 17:30:07,891 - src.stk_interface.stk_manager - INFO - é…ç½®è·ç¦»çº¦æŸ: 0 km åˆ° 5000 km
2025-08-03 17:30:08,471 - src.stk_interface.stk_manager - INFO - âœ“ è®¾ç½®è·ç¦»çº¦æŸæˆåŠŸ: 0 km åˆ° 5000 km
2025-08-03 17:30:08,472 - src.stk_interface.stk_manager - INFO - === ä¼ æ„Ÿå™¨çº¦æŸé…ç½®ç»“æœæ€»ç»“ ===
2025-08-03 17:30:08,472 - src.stk_interface.stk_manager - INFO - æˆåŠŸé…ç½®çš„çº¦æŸ (1 ä¸ª):
2025-08-03 17:30:08,472 - src.stk_interface.stk_manager - INFO -   âœ“ è·ç¦»çº¦æŸ(0 km åˆ° 5000 km)
2025-08-03 17:30:08,472 - src.stk_interface.stk_manager - INFO - =============== ä¼ æ„Ÿå™¨çº¦æŸé…ç½®å®Œæˆ ===============
2025-08-03 17:30:08,477 - src.stk_interface.stk_manager - INFO - === è½½è·é…ç½®ç»“æœæ€»ç»“ ===
2025-08-03 17:30:08,478 - src.stk_interface.stk_manager - INFO - æˆåŠŸé…ç½®çš„å‚æ•° (3 ä¸ª):
2025-08-03 17:30:08,478 - src.stk_interface.stk_manager - INFO -   âœ“ åœ†é”¥è§†åœºå‚æ•°(éªŒè¯æˆåŠŸæ–¹æ³•, å†…é”¥è§’66.1Â°, å¤–é”¥è§’85.0Â°)
2025-08-03 17:30:08,478 - src.stk_interface.stk_manager - INFO -   âœ“ æŒ‡å‘å‚æ•°(STKå®˜æ–¹æ–¹æ³•, æ–¹ä½è§’0.0Â°, ä¿¯ä»°è§’90.0Â°)
2025-08-03 17:30:08,478 - src.stk_interface.stk_manager - INFO -   âœ“ è·ç¦»çº¦æŸ(0 km åˆ° 5000 km)
2025-08-03 17:30:08,478 - src.stk_interface.stk_manager - INFO - æ‰€æœ‰å‚æ•°é…ç½®æˆåŠŸï¼
2025-08-03 17:30:08,478 - src.stk_interface.stk_manager - INFO - === è½½è·é…ç½®å®Œæˆ ===
